#aV2008 11 26  0  0   .00000000      96 DD+AD WGS84 FIT  NGA
## 1507 259200.00000000   900.00000000 54796  .0000000000000
+   31     2  3  4  5  6  7  8  9 10 11 12 13 14 15 16 17 18
+         19 20 21 22 23 24 25 26 27 28 29 30 31 32  0  0  0
+          0  0  0  0  0  0  0  0  0  0  0  0  0  0  0  0  0
+          0  0  0  0  0  0  0  0  0  0  0  0  0  0  0  0  0
+          0  0  0  0  0  0  0  0  0  0  0  0  0  0  0  0  0
++         0  0  0  0  0  0  0  0  0  0  0  0  0  0  0  0  0
++         0  0  0  0  0  0  0  0  0  0  0  0  0  0  0  0  0
++         0  0  0  0  0  0  0  0  0  0  0  0  0  0  0  0  0
++         0  0  0  0  0  0  0  0  0  0  0  0  0  0  0  0  0
++         0  0  0  0  0  0  0  0  0  0  0  0  0  0  0  0  0
%c cc cc ccc ccc cccc cccc cccc cccc ccccc ccccc ccccc ccccc
%c cc cc ccc ccc cccc cccc cccc cccc ccccc ccccc ccccc ccccc
%f  0.0000000  0.000000000  0.00000000000  0.000000000000000
%f  0.0000000  0.000000000  0.00000000000  0.000000000000000
%i    0    0    0    0      0      0      0      0         0
%i    0    0    0    0      0      0      0      0         0
/*      NGA, ST. LOUIS,MO.                                  
/*   EPHEMERIS COMPUTED FROM  3 DAYS OF DATA                
/* CCCCCCCCCCCCCCCCCCCCCCCCCCCCCCCCCCCCCCCCCCCCCCCCCCCCCCCCC
/* CCCCCCCCCCCCCCCCCCCCCCCCCCCCCCCCCCCCCCCCCCCCCCCCCCCCCCCCC
*  2008 11 26 12 15   .00000000                                                 
P  2 -21805.182220  13802.364966   5228.730511    170.729865                    
V  2  -7773.623070   -534.922409 -30636.736420      -.024092                    
P  3  11138.928883 -18777.180235  14586.696924    316.458956                    
V  3   2990.666121  19301.480877  22473.022398       .052683                    
P  4 -25221.104476   4380.658597  -7888.121102   -244.833365                    
V  4   7912.291196  -6423.924618 -28937.449620      -.124657                    
P  5   9866.215964  19321.105837 -15700.266470   -398.853575                    
V  5 -17681.656787  -8271.236736 -21577.951355      -.014815                    
P  6  14000.528789 -14622.554119  17371.739000    135.744253                    
V  6    490.306218  21893.599477  18240.792231      -.081084                    
P  7 -11690.503676 -10944.124463  21186.966216     23.393225                    
V  7  24499.399551 -11162.783902   7639.475194       .001248                    
P  8 -22384.963466  -2046.265232  14472.568445   -179.599999                    
V  8  16734.447410  -7363.767381  24247.466143      -.016648                    
P  9  -5423.562123  17466.679863 -19859.869176     26.748569                    
V  9 -21996.102312   9261.909727  14744.835360       .017432                    
P 10 -12646.173020   9082.104642  21412.250302     -7.631799                    
V 10 -21411.076502 -17232.165506  -4972.457511      -.003929                    
P 11   1673.793499 -19213.858094 -18315.897475     14.697107                    
V 11  20548.177397 -11262.005049  14187.638962      -.008838                    
P 12   4812.198808  19065.973860 -17829.082669   -338.104283                    
V 12 -19073.969418 -12461.255570 -18304.668061       .025459                    
P 13  -5701.523476 -21569.647175  14298.657344    278.771090                    
V 13   4434.419722 -17799.303431 -24878.117367       .014881                    
P 14  14534.657951   1093.880059 -22082.661077   -189.686387                    
V 14  -4148.561853  27944.361121  -1448.575304       .048702                    
P 15  -6742.317421  25021.402327   5780.521023   -217.107486                    
V 15  -2075.365876  -7569.990945  30546.049476      -.061327                    
P 16  17378.653707  -3821.452005  19844.281024     92.887842                    
V 16  19103.736557  16137.465745 -13452.756673      -.024448                    
P 17 -14811.454209  -3884.862103 -21665.839576     41.089526                    
V 17   3779.027003 -27352.446375   2139.725537       .007006                    
P 18  19889.510279  17807.723874   2062.919847   -109.090663                    
V 18  -3691.486589    857.201893  31025.497337       .038118                    
P 19   7714.141451 -24972.408589   4078.088880     35.347079                    
V 19   2049.009848   5620.123529  31243.636373      -.002209                    
P 20  -8033.815333 -19844.036061 -15865.067292     98.033001                    
V 20  17514.208132   9823.555545 -21267.780743      -.010628                    
P 21  17002.056232   8308.718149  19081.360333     40.952687                    
V 21 -21453.353237  10066.655933  14285.616632      -.016292                    
P 22  22832.272183   9621.565331  -9485.183023    208.881570                    
V 22   7641.413423  10088.583148  28086.968100      -.004640                    
P 23   -902.407100 -25719.798424   5915.032223    381.094867                    
V 23   3554.433262  -7241.148197 -30954.133117       .010309                    
P 24    944.015022  15913.375442  21422.551967    144.148827                    
V 24 -25319.810245   8958.906930  -5304.922895       .030815                    
P 25  -4571.104319 -14753.680844  21979.459175     54.092799                    
V 25  23802.508962 -12787.663721  -3519.368945       .297239                    
P 26 -10462.066100  21601.887573  10256.592203     19.689544                    
V 26    253.653051 -14071.041704  29024.363047       .042639                    
P 27 -16275.460523  -7385.912140  20375.727344      3.018460                    
V 27  21374.367062 -11608.276036  13196.641947       .030803                    
P 28 -22826.014084 -11429.552367  -7531.661346    -23.647210                    
V 28  -6398.074325  -8050.122317  29681.079644      -.000152                    
P 29   5893.372799  22566.174745  12846.198449    -28.104647                    
V 29  -4507.711324  15658.015859 -25605.749111       .018189                    
P 30  16753.728391  18938.042767  -8627.282992    110.122363                    
V 30 -10183.947467  -3629.802358 -28875.982687       .021034                    
P 31  25110.107604  -7108.652215  -5033.119947    -40.686027                    
V 31  -5142.938508   4815.781555 -31047.880430      -.017756                    
P 32     15.672125 -17832.875797 -19329.996664    312.547930                    
V 32  19753.301005  15979.663152 -14202.391009      -.015674                    
EOF
